0 FENGYUN 1C DEB
1 32366U 99025CZK 13281.53032573  .00001061  00000-0  63017-3 0  1471
2 32366 096.7817 023.5344 0193040 088.0867 274.2354 13.99865213307515
0 FENGYUN 1C DEB
1 32366U 99025CZK 13282.53100208  .00000993  00000-0  59052-3 0  1481
2 32366 096.7823 024.2786 0193225 085.2336 277.0692 13.99865994307652
0 FENGYUN 1C DEB
1 32366U 99025CZK 13283.53167943  .00000866  00000-0  51684-3 0  1494
2 32366 096.7827 025.0224 0192936 082.3281 279.9535 13.99865693307795
0 FENGYUN 1C DEB
1 32366U 99025CZK 13284.53235678  .00000847  00000-0  50618-3 0  1503
2 32366 096.7820 025.7642 0192784 079.3730 282.9024 13.99867063307931
0 FENGYUN 1C DEB
1 32366U 99025CZK 13286.10483991  .00000789  00000-0  47299-3 0  1518
2 32366 096.7805 026.9283 0192053 074.5682 287.6447 13.99868623308159
0 FENGYUN 1C DEB
1 32366U 99025CZK 13287.53436819  .00000704  00000-0  42379-3 0  1525
2 32366 096.7812 027.9908 0191491 070.8594 291.3260 13.99869662308359
0 FENGYUN 1C DEB
1 32366U 99025CZK 13289.53569713  .00000699  00000-0  42130-3 0  1536
2 32366 096.7813 029.4773 0191486 065.0157 297.0754 13.99872476308631
0 FENGYUN 1C DEB
1 32366U 99025CZK 13291.53701956  .00000696  00000-0  41935-3 0  1546
2 32366 096.7791 030.9610 0191567 059.1537 302.8315 13.99875386308911
0 FENGYUN 1C DEB
1 32366U 99025CZK 13293.53833457  .00000683  00000-0  41204-3 0  1556
2 32366 096.7814 032.4530 0191520 053.3410 308.5191 13.99877950309195
